line1,line2,validFromUtcTime
1 00000U 00000E   26001.00000000  .00000000  00000-0  27772-4 0    01,2 00000  88.8732 120.3344 0010212 270.1876 134.7398 13.55320399    07,2026-01-01T00:00:00Z
1 00000U 00000E   26002.00000000  .00000000  00000-0  27772-4 0    02,2 00000  88.8738 120.2202 0010209 266.5706 334.6297 13.55348776    00,2026-01-02T00:00:00Z
